[{"OBJECT_NAME":"STARLINK-34201","OBJECT_ID":"2025-107P","EPOCH":"2026-01-13T16:14:14.777952","MEAN_MOTION":15.27597024,"ECCENTRICITY":0.0001219,"INCLINATION":42.9991,"RA_OF_ASC_NODE":152.515,"ARG_OF_PERICENTER":269.9387,"MEAN_ANOMALY":90.1325,"EPHEMERIS_TYPE":0,"CLASSIFICATION_TYPE":"U","NORAD_CAT_ID":64077,"ELEMENT_SET_NO":999,"REV_AT_EPOCH":3661,"BSTAR":0.00057259982,"MEAN_MOTION_DOT":0.00015536,"MEAN_MOTION_DDOT":0},{"OBJECT_NAME":"STARLINK-34190","OBJECT_ID":"2025-107Q","EPOCH":"2026-01-13T09:20:36.305376","MEAN_MOTION":15.27576041,"ECCENTRICITY":0.0001696,"INCLINATION":42.9997,"RA_OF_ASC_NODE":153.7966,"ARG_OF_PERICENTER":256.6774,"MEAN_ANOMALY":103.3888,"EPHEMERIS_TYPE":0,"CLASSIFICATION_TYPE":"U","NORAD_CAT_ID":64078,"ELEMENT_SET_NO":999,"REV_AT_EPOCH":3766,"BSTAR":0.00062243,"MEAN_MOTION_DOT":0.00016903,"MEAN_MOTION_DDOT":0},{"OBJECT_NAME":"STARLINK-34168","OBJECT_ID":"2025-107R","EPOCH":"2026-01-13T10:28:51.178080","MEAN_MOTION":15.27583303,"ECCENTRICITY":0.0001781,"INCLINATION":43.0012,"RA_OF_ASC_NODE":153.2936,"ARG_OF_PERICENTER":261.272,"MEAN_ANOMALY":98.793,"EPHEMERIS_TYPE":0,"CLASSIFICATION_TYPE":"U","NORAD_CAT_ID":64079,"ELEMENT_SET_NO":999,"REV_AT_EPOCH":3767,"BSTAR":0.00061757,"MEAN_MOTION_DOT":0.00016773,"MEAN_MOTION_DDOT":0},{"OBJECT_NAME":"STARLINK-34098","OBJECT_ID":"2025-107S","EPOCH":"2026-01-13T09:05:48.166944","MEAN_MOTION":15.27582597,"ECCENTRICITY":0.000109,"INCLINATION":42.9995,"RA_OF_ASC_NODE":153.717,"ARG_OF_PERICENTER":258.0486,"MEAN_ANOMALY":102.0244,"EPHEMERIS_TYPE":0,"CLASSIFICATION_TYPE":"U","NORAD_CAT_ID":64080,"ELEMENT_SET_NO":999,"REV_AT_EPOCH":3766,"BSTAR":0.00066748,"MEAN_MOTION_DOT":0.00018152,"MEAN_MOTION_DDOT":0},{"OBJECT_NAME":"STARLINK-34180","OBJECT_ID":"2025-107T","EPOCH":"2026-01-13T09:37:15.790080","MEAN_MOTION":15.2759058,"ECCENTRICITY":7.29e-5,"INCLINATION":42.9958,"RA_OF_ASC_NODE":153.8854,"ARG_OF_PERICENTER":295.983,"MEAN_ANOMALY":64.0946,"EPHEMERIS_TYPE":0,"CLASSIFICATION_TYPE":"U","NORAD_CAT_ID":64081,"ELEMENT_SET_NO":999,"REV_AT_EPOCH":3766,"BSTAR":0.00091587,"MEAN_MOTION_DOT":0.00025035,"MEAN_MOTION_DDOT":0},{"OBJECT_NAME":"STARLINK-34171","OBJECT_ID":"2025-107U","EPOCH":"2026-01-13T10:23:18.428352","MEAN_MOTION":15.27582029,"ECCENTRICITY":8.32e-5,"INCLINATION":42.9976,"RA_OF_ASC_NODE":153.2631,"ARG_OF_PERICENTER":263.8105,"MEAN_ANOMALY":96.2651,"EPHEMERIS_TYPE":0,"CLASSIFICATION_TYPE":"U","NORAD_CAT_ID":64082,"ELEMENT_SET_NO":999,"REV_AT_EPOCH":3767,"BSTAR":0.0006434,"MEAN_MOTION_DOT":0.00017486,"MEAN_MOTION_DDOT":0},{"OBJECT_NAME":"STARLINK-34126","OBJECT_ID":"2025-107V","EPOCH":"2026-01-13T19:16:58.067904","MEAN_MOTION":15.27576532,"ECCENTRICITY":0.00022549,"INCLINATION":43.0005,"RA_OF_ASC_NODE":151.7464,"ARG_OF_PERICENTER":279.282,"MEAN_ANOMALY":80.7777,"EPHEMERIS_TYPE":0,"CLASSIFICATION_TYPE":"U","NORAD_CAT_ID":64083,"ELEMENT_SET_NO":999,"REV_AT_EPOCH":3663,"BSTAR":8.5747841e-5,"MEAN_MOTION_DOT":2.098e-5,"MEAN_MOTION_DDOT":0},{"OBJECT_NAME":"STARLINK-34157","OBJECT_ID":"2025-107W","EPOCH":"2026-01-13T10:36:15.405408","MEAN_MOTION":15.27579851,"ECCENTRICITY":0.0001486,"INCLINATION":43.0025,"RA_OF_ASC_NODE":153.3279,"ARG_OF_PERICENTER":259.8028,"MEAN_ANOMALY":100.2656,"EPHEMERIS_TYPE":0,"CLASSIFICATION_TYPE":"U","NORAD_CAT_ID":64084,"ELEMENT_SET_NO":999,"REV_AT_EPOCH":3765,"BSTAR":0.00064757,"MEAN_MOTION_DOT":0.000176,"MEAN_MOTION_DDOT":0},{"OBJECT_NAME":"STARLINK-34140","OBJECT_ID":"2025-107X","EPOCH":"2026-01-13T15:48:20.115360","MEAN_MOTION":15.2758235,"ECCENTRICITY":4.238e-5,"INCLINATION":42.9957,"RA_OF_ASC_NODE":152.3719,"ARG_OF_PERICENTER":187.5659,"MEAN_ANOMALY":172.5186,"EPHEMERIS_TYPE":0,"CLASSIFICATION_TYPE":"U","NORAD_CAT_ID":64085,"ELEMENT_SET_NO":999,"REV_AT_EPOCH":3768,"BSTAR":0.00061280329,"MEAN_MOTION_DOT":0.0001664,"MEAN_MOTION_DDOT":0},{"OBJECT_NAME":"STARLINK-34132","OBJECT_ID":"2025-107Y","EPOCH":"2026-01-13T09:46:30.599904","MEAN_MOTION":15.27581752,"ECCENTRICITY":0.0001474,"INCLINATION":42.999,"RA_OF_ASC_NODE":153.9316,"ARG_OF_PERICENTER":262.1904,"MEAN_ANOMALY":97.8781,"EPHEMERIS_TYPE":0,"CLASSIFICATION_TYPE":"U","NORAD_CAT_ID":64086,"ELEMENT_SET_NO":999,"REV_AT_EPOCH":3763,"BSTAR":0.00061582,"MEAN_MOTION_DOT":0.00016723,"MEAN_MOTION_DDOT":0},{"OBJECT_NAME":"STARLINK-34178","OBJECT_ID":"2025-110A","EPOCH":"2026-01-13T20:28:29.129952","MEAN_MOTION":15.30236359,"ECCENTRICITY":0.00013591,"INCLINATION":53.1585,"RA_OF_ASC_NODE":281.6914,"ARG_OF_PERICENTER":94.3059,"MEAN_ANOMALY":265.8097,"EPHEMERIS_TYPE":0,"CLASSIFICATION_TYPE":"U","NORAD_CAT_ID":64096,"ELEMENT_SET_NO":999,"REV_AT_EPOCH":3748,"BSTAR":0.00079159909,"MEAN_MOTION_DOT":0.00023185,"MEAN_MOTION_DDOT":0},{"OBJECT_NAME":"STARLINK-34174","OBJECT_ID":"2025-110B","EPOCH":"2026-01-13T03:04:49.594656","MEAN_MOTION":15.30183937,"ECCENTRICITY":0.00014382,"INCLINATION":53.1585,"RA_OF_ASC_NODE":285.0012,"ARG_OF_PERICENTER":92.4081,"MEAN_ANOMALY":267.7084,"EPHEMERIS_TYPE":0,"CLASSIFICATION_TYPE":"U","NORAD_CAT_ID":64097,"ELEMENT_SET_NO":999,"REV_AT_EPOCH":3737,"BSTAR":0.00064609105,"MEAN_MOTION_DOT":0.00018815,"MEAN_MOTION_DDOT":0},{"OBJECT_NAME":"STARLINK-34146","OBJECT_ID":"2025-110C","EPOCH":"2026-01-13T13:54:03.658464","MEAN_MOTION":15.30188732,"ECCENTRICITY":0.00012494,"INCLINATION":53.1579,"RA_OF_ASC_NODE":282.8357,"ARG_OF_PERICENTER":105.8773,"MEAN_ANOMALY":254.2365,"EPHEMERIS_TYPE":0,"CLASSIFICATION_TYPE":"U","NORAD_CAT_ID":64098,"ELEMENT_SET_NO":999,"REV_AT_EPOCH":3744,"BSTAR":0.00056863796,"MEAN_MOTION_DOT":0.00016514,"MEAN_MOTION_DDOT":0},{"OBJECT_NAME":"STARLINK-34074","OBJECT_ID":"2025-110D","EPOCH":"2026-01-13T03:21:30.189600","MEAN_MOTION":15.30271137,"ECCENTRICITY":0.00011207,"INCLINATION":53.1605,"RA_OF_ASC_NODE":285.0679,"ARG_OF_PERICENTER":82.1354,"MEAN_ANOMALY":277.9774,"EPHEMERIS_TYPE":0,"CLASSIFICATION_TYPE":"U","NORAD_CAT_ID":64099,"ELEMENT_SET_NO":999,"REV_AT_EPOCH":3737,"BSTAR":0.00193851,"MEAN_MOTION_DOT":0.00057627,"MEAN_MOTION_DDOT":0},{"OBJECT_NAME":"STARLINK-34082","OBJECT_ID":"2025-110E","EPOCH":"2026-01-13T03:18:29.594592","MEAN_MOTION":15.30195796,"ECCENTRICITY":0.00013195,"INCLINATION":53.1602,"RA_OF_ASC_NODE":285.0591,"ARG_OF_PERICENTER":71.2208,"MEAN_ANOMALY":288.8936,"EPHEMERIS_TYPE":0,"CLASSIFICATION_TYPE":"U","NORAD_CAT_ID":64100,"ELEMENT_SET_NO":999,"REV_AT_EPOCH":3737,"BSTAR":0.0008217146,"MEAN_MOTION_DOT":0.00024053,"MEAN_MOTION_DDOT":0},{"OBJECT_NAME":"STARLINK-34072","OBJECT_ID":"2025-110F","EPOCH":"2026-01-13T03:09:22.172832","MEAN_MOTION":15.30202845,"ECCENTRICITY":0.00017444,"INCLINATION":53.1604,"RA_OF_ASC_NODE":285.0202,"ARG_OF_PERICENTER":59.8571,"MEAN_ANOMALY":300.2602,"EPHEMERIS_TYPE":0,"CLASSIFICATION_TYPE":"U","NORAD_CAT_ID":64101,"ELEMENT_SET_NO":999,"REV_AT_EPOCH":3737,"BSTAR":0.00067363256,"MEAN_MOTION_DOT":0.00019646,"MEAN_MOTION_DDOT":0},{"OBJECT_NAME":"STARLINK-34104","OBJECT_ID":"2025-110G","EPOCH":"2026-01-13T17:06:44.032896","MEAN_MOTION":15.30182043,"ECCENTRICITY":0.00013297,"INCLINATION":53.1588,"RA_OF_ASC_NODE":282.2494,"ARG_OF_PERICENTER":69.8773,"MEAN_ANOMALY":290.2371,"EPHEMERIS_TYPE":0,"CLASSIFICATION_TYPE":"U","NORAD_CAT_ID":64102,"ELEMENT_SET_NO":999,"REV_AT_EPOCH":3746,"BSTAR":0.00059655131,"MEAN_MOTION_DOT":0.0001734,"MEAN_MOTION_DDOT":0},{"OBJECT_NAME":"STARLINK-34179","OBJECT_ID":"2025-110H","EPOCH":"2026-01-13T17:32:33.543456","MEAN_MOTION":15.3019451,"ECCENTRICITY":0.00013661,"INCLINATION":53.1612,"RA_OF_ASC_NODE":282.3555,"ARG_OF_PERICENTER":82.4101,"MEAN_ANOMALY":277.7055,"EPHEMERIS_TYPE":0,"CLASSIFICATION_TYPE":"U","NORAD_CAT_ID":64103,"ELEMENT_SET_NO":999,"REV_AT_EPOCH":3746,"BSTAR":0.00049008803,"MEAN_MOTION_DOT":0.00014181,"MEAN_MOTION_DDOT":0},{"OBJECT_NAME":"STARLINK-34176","OBJECT_ID":"2025-110J","EPOCH":"2026-01-13T11:07:13.600704","MEAN_MOTION":15.30207604,"ECCENTRICITY":0.0001513,"INCLINATION":53.1605,"RA_OF_ASC_NODE":283.528,"ARG_OF_PERICENTER":89.8997,"MEAN_ANOMALY":270.2177,"EPHEMERIS_TYPE":0,"CLASSIFICATION_TYPE":"U","NORAD_CAT_ID":64104,"ELEMENT_SET_NO":999,"REV_AT_EPOCH":3742,"BSTAR":0.00056197,"MEAN_MOTION_DOT":0.00016325,"MEAN_MOTION_DDOT":0},{"OBJECT_NAME":"STARLINK-33949","OBJECT_ID":"2025-110K","EPOCH":"2026-01-13T17:18:52.854912","MEAN_MOTION":15.30209208,"ECCENTRICITY":0.00016441,"INCLINATION":53.1608,"RA_OF_ASC_NODE":282.2986,"ARG_OF_PERICENTER":66.9781,"MEAN_ANOMALY":293.1393,"EPHEMERIS_TYPE":0,"CLASSIFICATION_TYPE":"U","NORAD_CAT_ID":64105,"ELEMENT_SET_NO":999,"REV_AT_EPOCH":3746,"BSTAR":0.00073921227,"MEAN_MOTION_DOT":0.00021604,"MEAN_MOTION_DDOT":0},{"OBJECT_NAME":"STARLINK-33970","OBJECT_ID":"2025-110L","EPOCH":"2026-01-13T10:49:00.435936","MEAN_MOTION":15.30204779,"ECCENTRICITY":0.0001244,"INCLINATION":53.1581,"RA_OF_ASC_NODE":283.4528,"ARG_OF_PERICENTER":104.7903,"MEAN_ANOMALY":255.3235,"EPHEMERIS_TYPE":0,"CLASSIFICATION_TYPE":"U","NORAD_CAT_ID":64106,"ELEMENT_SET_NO":999,"REV_AT_EPOCH":3742,"BSTAR":0.00085884,"MEAN_MOTION_DOT":0.00025167,"MEAN_MOTION_DDOT":0},{"OBJECT_NAME":"STARLINK-33912","OBJECT_ID":"2025-110M","EPOCH":"2026-01-13T23:15:19.788192","MEAN_MOTION":15.3019403,"ECCENTRICITY":0.0001051,"INCLINATION":53.1572,"RA_OF_ASC_NODE":281.0001,"ARG_OF_PERICENTER":91.7676,"MEAN_ANOMALY":268.3446,"EPHEMERIS_TYPE":0,"CLASSIFICATION_TYPE":"U","NORAD_CAT_ID":64107,"ELEMENT_SET_NO":999,"REV_AT_EPOCH":3750,"BSTAR":0.00062181717,"MEAN_MOTION_DOT":0.00018099,"MEAN_MOTION_DDOT":0},{"OBJECT_NAME":"STARLINK-34156","OBJECT_ID":"2025-110N","EPOCH":"2026-01-13T18:19:30.897120","MEAN_MOTION":15.30172619,"ECCENTRICITY":0.00012178,"INCLINATION":53.1571,"RA_OF_ASC_NODE":281.8488,"ARG_OF_PERICENTER":84.6475,"MEAN_ANOMALY":275.4665,"EPHEMERIS_TYPE":0,"CLASSIFICATION_TYPE":"U","NORAD_CAT_ID":64108,"ELEMENT_SET_NO":999,"REV_AT_EPOCH":3747,"BSTAR":0.00060936108,"MEAN_MOTION_DOT":0.00017716,"MEAN_MOTION_DDOT":0}]
